*******************************************************************************
 Revised: Jun 17, 2016           Ganymede / (Jupiter)                       503

 SATELLITE PHYSICAL PROPERTIES:
  Radius (km)             = 2634   +- 10     Density (g cm^-3)  =  1.94 +- 0.02
  Mass (10^20 kg )        = 1482   +- 1      Geometric Albedo   =  0.4

 SATELLITE ORBITAL DATA:
  Semi-major axis, a (km) = 1070.0428 (10^3) Orbital period     = 7.154553 d
  Eccentricity, e         = 0.0006           Rotational period  = Synchronous
  Inclination, i  (deg)   = 0.186
*******************************************************************************
 
 
*******************************************************************************
Ephemeris / WWW_USER Wed Jun 17 12:30:08 2020 Pasadena, USA      / Horizons
*******************************************************************************
Target body name: Ganymede (503)                  {source: jup310}
Center body name: Solar System Barycenter (0)     {source: DE431mx}
Center-site name: BODY CENTER
*******************************************************************************
Start time      : A.D. 2000-Jun-05 00:00:00.0000 TDB
Stop  time      : A.D. 2040-May-26 00:00:00.0000 TDB
Step-size       : 14400 minutes
*******************************************************************************
Center geodetic : 0.00000000,0.00000000,0.0000000 {E-lon(deg),Lat(deg),Alt(km)}
Center cylindric: 0.00000000,0.00000000,0.0000000 {E-lon(deg),Dxy(km),Dz(km)}
Center radii    : (undefined)                                                  
Output units    : AU-D
Output type     : GEOMETRIC cartesian states
Output format   : 3 (position, velocity, LT, range, range-rate)
Reference frame : Ecliptic of J2000.0
*******************************************************************************
JDTDB
   X     Y     Z
   VX    VY    VZ
   LT    RG    RR
*******************************************************************************
$$SOE
2462100.500000000 = A.D. 2028-Nov-25 00:00:00.0000 TDB 
 X =-5.330984381029061E+00 Y =-1.107315037201644E+00 Z = 1.241268165865593E-01
 VX= 2.797489740563811E-03 VY=-9.012966801457330E-04 VZ= 2.517604925938234E-04
 LT= 3.145455056962902E-02 RG= 5.446186604311735E+00 RR=-2.549325891009587E-03
2462110.500000000 = A.D. 2028-Dec-05 00:00:00.0000 TDB 
 X =-5.327752702972176E+00 Y =-1.170640895581289E+00 Z = 1.241769840417580E-01
 VX=-3.215024353600210E-03 VY=-1.111169580939917E-02 VZ=-2.327739546082752E-04
 LT= 3.151272737856648E-02 RG= 5.456259606525371E+00 RR= 5.518020993741376E-03
2462120.500000000 = A.D. 2028-Dec-15 00:00:00.0000 TDB 
 X =-5.306744401830549E+00 Y =-1.253263509138309E+00 Z = 1.237110896764079E-01
 VX= 7.904870332427342E-03 VY=-6.582582368776503E-03 VZ= 1.022508584647644E-04
 LT= 3.150041506160686E-02 RG= 5.454127794928027E+00 RR=-6.176380130169632E-03
2462130.500000000 = A.D. 2028-Dec-25 00:00:00.0000 TDB 
 X =-5.286509024742550E+00 Y =-1.309969567676682E+00 Z = 1.241776221380487E-01
 VX=-3.551078000479749E-03 VY=-3.562717184729574E-03 VZ= 4.128573271661695E-05
 LT= 3.146391815798026E-02 RG= 5.447808551955853E+00 RR= 4.303562345823487E-03
2462140.500000000 = A.D. 2029-Jan-04 00:00:00.0000 TDB 
 X =-5.279305052196010E+00 Y =-1.388047957579858E+00 Z = 1.235863629387439E-01
 VX= 3.996065169631782E-03 VY=-1.283438947365865E-02 VZ=-2.042909302476794E-04
 LT= 3.153507717254087E-02 RG= 5.460129353393412E+00 RR=-6.056535115309513E-04
2462150.500000000 = A.D. 2029-Jan-14 00:00:00.0000 TDB 
 X =-5.246977137012039E+00 Y =-1.456982116038783E+00 Z = 1.236744101097579E-01
 VX= 3.720349396442324E-03 VY=-8.974507247593062E-04 VZ= 2.427515308161186E-04
 LT= 3.145874593051113E-02 RG= 5.446913008530602E+00 RR=-3.338220454039766E-03
2462160.500000000 = A.D. 2029-Jan-24 00:00:00.0000 TDB 
 X =-5.238392994110238E+00 Y =-1.518291188461940E+00 Z = 1.236504290835093E-01
 VX=-3.013544681107972E-03 VY=-1.064058624515996E-02 VZ=-2.350872676812963E-04
 LT= 3.150769365941685E-02 RG= 5.455388045072223E+00 RR= 5.849734386604299E-03
2462170.500000000 = A.D. 2029-Feb-03 00:00:00.0000 TDB 
 X =-5.213488064174427E+00 Y =-1.599985132855003E+00 Z = 1.230454267590450E-01
 VX= 8.396197124382575E-03 VY=-6.905439316972822E-03 VZ= 7.403760692633675E-05
 LT= 3.150467186570922E-02 RG= 5.454864837710700E+00 RR=-5.997538753723725E-03
2462180.500000000 = A.D. 2029-Feb-13 00:00:00.0000 TDB 
 X =-5.187525015358521E+00 Y =-1.655642618191026E+00 Z = 1.234027066107169E-01
 VX=-2.817474787942640E-03 VY=-3.056182650890917E-03 VZ= 4.784114045147295E-05
 LT= 3.145765121199112E-02 RG= 5.446723463894575E+00 RR= 3.613469831003968E-03
2462190.500000000 = A.D. 2029-Feb-23 00:00:00.0000 TDB 
 X =-5.176126432288533E+00 Y =-1.731552135577855E+00 Z = 1.227196538802441E-01
 VX= 4.044744594174437E-03 VY=-1.282947750722124E-02 VZ=-2.271095039068417E-04
 LT= 3.153116595953442E-02 RG= 5.459452147854099E+00 RR= 2.291308608673990E-04
2462200.500000000 = A.D. 2029-Mar-05 00:00:00.0000 TDB 
 X =-5.139047809045304E+00 Y =-1.800009102576508E+00 Z = 1.226583472683434E-01
 VX= 4.625715116617531E-03 VY=-8.927355770078858E-04 VZ= 2.325126191327090E-04
 LT= 3.145664052470918E-02 RG= 5.446548468816396E+00 RR=-4.064283919195826E-03
2462210.500000000 = A.D. 2029-Mar-15 00:00:00.0000 TDB 
 X =-5.125141054053591E+00 Y =-1.859024874005142E+00 Z = 1.225602218468092E-01
 VX=-2.795481157742559E-03 VY=-1.011716701888435E-02 VZ=-2.361741085530986E-04
 LT= 3.149541405056774E-02 RG= 5.453261896708660E+00 RR= 6.070926991200048E-03
2462220.500000000 = A.D. 2029-Mar-25 00:00:00.0000 TDB 
 X =-5.096455932987334E+00 Y =-1.939409684222509E+00 Z = 1.218190425753031E-01
 VX= 8.846795919528935E-03 VY=-7.197327397434759E-03 VZ= 4.544729237958842E-05
 LT= 3.150174021403619E-02 RG= 5.454357237958640E+00 RR=-5.706117401820447E-03
2462230.500000000 = A.D. 2029-Apr-04 00:00:00.0000 TDB 
 X =-5.064881331339734E+00 Y =-1.993771897128523E+00 Z = 1.220650664013356E-01
 VX=-2.066801276411419E-03 VY=-2.537824876604466E-03 VZ= 5.412844477230974E-05
 LT= 3.144505826342312E-02 RG= 5.444543062440482E+00 RR= 2.853233803707863E-03
2462240.500000000 = A.D. 2029-Apr-14 00:00:00.0000 TDB 
 X =-5.049331245794347E+00 Y =-2.067158035065090E+00 Z = 1.212935916422680E-01
 VX= 4.072718857206663E-03 VY=-1.276299956112581E-02 VZ=-2.488209918543234E-04
 LT= 3.151951785768205E-02 RG= 5.457435341537519E+00 RR= 1.060653907788709E-03
2462250.500000000 = A.D. 2029-Apr-24 00:00:00.0000 TDB 
 X =-5.007674322190925E+00 Y =-2.134825629661767E+00 Z = 1.210829679379749E-01
 VX= 5.509100031301751E-03 VY=-8.874900041309917E-04 VZ= 2.210404050064177E-04
 LT= 3.144818452880888E-02 RG= 5.445084358512342E+00 RR=-4.713678694407497E-03
2462260.500000000 = A.D. 2029-May-04 00:00:00.0000 TDB 
 X =-4.988495903608072E+00 Y =-2.191281250580879E+00 Z = 1.209109944761253E-01
 VX=-2.561513705801686E-03 VY=-9.543610003612278E-03 VZ=-2.360083004720853E-04
 LT= 3.147600496245034E-02 RG= 5.449901317276032E+00 RR= 6.176680334958749E-03
2462270.500000000 = A.D. 2029-May-14 00:00:00.0000 TDB 
 X =-4.956160167379919E+00 Y =-2.269980841631723E+00 Z = 1.200371181758110E-01
 VX= 9.254868114894670E-03 VY=-7.456677858957527E-03 VZ= 1.656486512799180E-05
 LT= 3.149153764447692E-02 RG= 5.452590717799969E+00 RR=-5.307587882984608E-03
2462280.500000000 = A.D. 2029-May-24 00:00:00.0000 TDB 
 X =-4.919114536213533E+00 Y =-2.322806031121753E+00 Z = 1.201702654252812E-01
 VX=-1.301998238424238E-03 VY=-2.010171604544099E-03 VZ= 6.013187003305933E-05
 LT= 3.142622752926222E-02 RG= 5.441282621891208E+00 RR= 2.036494705417959E-03
2462290.500000000 = A.D. 2029-Jun-03 00:00:00.0000 TDB 
 X =-4.899471545985759E+00 Y =-2.393324624095726E+00 Z = 1.193140918184125E-01
 VX= 4.080898466711227E-03 VY=-1.263511368672633E-02 VZ=-2.693473173617964E-04
 LT= 3.150017682103545E-02 RG= 5.454086544851804E+00 RR= 1.872640960211472E-03
2462300.500000000 = A.D. 2029-Jun-13 00:00:00.0000 TDB 
 X =-4.853427474656947E+00 Y =-2.459891494853947E+00 Z = 1.189547743427135E-01
 VX= 6.365867176239521E-03 VY=-8.817886398728223E-04 VZ= 2.083737287217265E-04
 LT= 3.143334787426397E-02 RG= 5.442515471411049E+00 RR=-5.273734797555881E-03
2462310.500000000 = A.D. 2029-Jun-23 00:00:00.0000 TDB 
 X =-4.829050128111859E+00 Y =-2.513530789109440E+00 Z = 1.187095398894060E-01
 VX=-2.312402793750706E-03 VY=-8.922679526349208E-03 VZ=-2.346125343823601E-04
 LT= 3.144962196316203E-02 RG= 5.445333242555411E+00 RR= 6.164230264166949E-03
2462320.500000000 = A.D. 2029-Jul-03 00:00:00.0000 TDB 
 X =-4.793205965236632E+00 Y =-2.590174742641889E+00 Z = 1.177069339133117E-01
 VX= 9.618044849106899E-03 VY=-7.680667581371832E-03 VZ=-1.244741950961944E-05
 LT= 3.147402273637172E-02 RG= 5.449558105469772E+00 RR=-4.809282405858725E-03
2462330.500000000 = A.D. 2029-Jul-13 00:00:00.0000 TDB 
 X =-4.750854022384575E+00 Y =-2.641225589888717E+00 Z = 1.177260827525184E-01
 VX=-5.262998273995832E-04 VY=-1.475546644906076E-03 VZ= 6.583262240551359E-05
 LT= 3.140126849310335E-02 RG= 5.436961098743575E+00 RR= 1.178116839536580E-03
2462340.500000000 = A.D. 2029-Jul-23 00:00:00.0000 TDB 
 X =-4.727191929565392E+00 Y =-2.708544768407695E+00 Z = 1.167891725371549E-01
 VX= 4.070954298644858E-03 VY=-1.244649993208158E-02 VZ=-2.886184558588055E-04
 LT= 3.147323553232724E-02 RG= 5.449421805314650E+00 RR= 2.648723658191963E-03
2462350.500000000 = A.D. 2029-Aug-02 00:00:00.0000 TDB 
 X =-4.676970184641485E+00 Y =-2.773700452907066E+00 Z = 1.162824715221345E-01
 VX= 7.191840743921848E-03 VY=-8.754996999734027E-04 VZ= 1.945821130293751E-04
 LT= 3.141212297724355E-02 RG= 5.438840494412901E+00 RR=-5.733763356490073E-03
